NORAD_CAT_ID,OBJECT_NAME,OBJECT_TYPE,EPOCH,MEAN_MOTION,ECCENTRICITY,INCLINATION,RA_OF_ASC_NODE,ARG_OF_PERICENTER,MEAN_ANOMALY,BSTAR,MEAN_MOTION_DOT,MEAN_MOTION_DDOT,TLE_LINE0,TLE_LINE1,TLE_LINE2,SEMIMAJOR_AXIS,PERIOD,APOGEE,PERIGEE,DECAYED
53732.0,STARLINK-4661,PAYLOAD,2023-01-19 04:58:19,15.08853856,0.0001564,53.2201,356.4541,90.8005,269.3167,0.00046955,7.196e-05,0.0,0 STARLINK-4661,1 53732U 22107AJ  23019.20717249  .00007196  00000-0  46955-3 0  9994,2 53732  53.2201 356.4541 0001564  90.8005 269.3167 15.08853856 21029,6917.838000000001,95.437,540.785,538.621,0.0
53732.0,STARLINK-4661,PAYLOAD,2023-01-19 08:09:05,15.08869009,0.0001759,53.2192,355.8583,88.2879,271.8315,0.00040897,6.232e-05,0.0,0 STARLINK-4661,1 53732U 22107AJ  23019.33964318  .00006232  00000-0  40897-3 0  9998,2 53732  53.2192 355.8583 0001759  88.2879 271.8315 15.08869009 21045,6917.792,95.436,540.874,538.44,0.0
53732.0,STARLINK-4661,PAYLOAD,2023-01-20 11:10:41,15.08838827,0.0002165,53.2201,350.8047,99.9963,260.1274,-8.7965e-05,-1.688e-05,0.0,0 STARLINK-4661,1 53732U 22107AJ  23020.46576145 -.00001688  00000-0 -87965-4 0  9991,2 53732  53.2201 350.8047 0002165  99.9963 260.1274 15.08838827 21219,6917.884,95.438,541.247,538.251,0.0
53732.0,STARLINK-4661,PAYLOAD,2023-01-20 22:18:24,15.08834481,0.000182,53.2202,348.7251,96.9805,263.1395,-0.00027243,-4.621e-05,0.0,0 STARLINK-4661,1 53732U 22107AJ  23020.92945159 -.00004621  00000-0 -27243-3 0  9999,2 53732  53.2202 348.7251 0001820  96.9805 263.1395 15.08834481 21288,6917.897,95.438,541.021,538.503,0.0
53732.0,STARLINK-4661,PAYLOAD,2023-01-21 06:15:18,15.08858714,0.0001859,53.2202,347.2379,99.7645,260.3557,-0.00017626,-3.094e-05,0.0,0 STARLINK-4661,1 53732U 22107AJ  23021.26063341 -.00003094  00000-0 -17626-3 0  9998,2 53732  53.2202 347.2379 0001859  99.7645 260.3557 15.08858714 21338,6917.823,95.436,540.974,538.4019999999999,0.0
53732.0,STARLINK-4661,PAYLOAD,2023-01-22 04:30:43,15.088352,0.0001797,53.2203,343.0756,112.7558,247.3624,7.4479e-05,8.97e-06,0.0,0 STARLINK-4661,1 53732U 22107AJ  23022.18800137  .00000897  00000-0  74479-4 0  9998,2 53732  53.2203 343.0756 0001797 112.7558 247.3624 15.08835200 21472,6917.895,95.438,541.003,538.5169999999999,0.0
53732.0,STARLINK-4661,PAYLOAD,2023-01-22 14:03:03,15.08825956,0.0003224,53.2197,341.2875,90.0064,270.1298,9.988e-05,1.301e-05,0.0,0 STARLINK-4661,1 53732U 22107AJ  23022.58545222  .00001301  00000-0  99880-4 0  9997,2 53732  53.2197 341.2875 0003224  90.0064 270.1298 15.08825956 21538,6917.923000000001,95.438,542.019,537.558,0.0
53732.0,STARLINK-4661,PAYLOAD,2023-01-24 05:47:40,15.08858752,0.0001483,53.22,333.8553,88.9391,271.1771,5.0479e-05,5.16e-06,0.0,0 STARLINK-4661,1 53732U 22107AJ  23024.24144015  .00000516  00000-0  50479-4 0  9995,2 53732  53.2200 333.8553 0001483  88.9391 271.1771 15.08858752 21781,6917.823,95.436,540.714,538.6619999999999,0.0
53732.0,STARLINK-4661,PAYLOAD,2023-01-25 05:38:27,15.08851557,0.0002156,53.2208,329.3922,104.6893,255.4338,7.7842e-05,9.51e-06,0.0,0 STARLINK-4661,1 53732U 22107AJ  23025.23504240  .00000951  00000-0  77842-4 0  9991,2 53732  53.2208 329.3922 0002156 104.6893 255.4338 15.08851557 21937,6917.845,95.437,541.202,538.219,0.0
53732.0,STARLINK-4661,PAYLOAD,2023-01-25 13:35:24,15.08835054,0.0001888,53.2205,327.9079,75.8651,284.2551,-5.9317e-07,-2.98e-06,0.0,0 STARLINK-4661,1 53732U 22107AJ  23025.56625670 -.00000298  00000-0 -59317-6 0  9993,2 53732  53.2205 327.9079 0001888  75.8651 284.2551 15.08835054 21989,6917.896,95.438,541.067,538.4540000000001,0.0
53732.0,STARLINK-4661,PAYLOAD,2023-01-25 19:56:57,15.08834244,0.0001488,53.2204,326.7197,72.7711,287.3444,1.1697e-05,-1.02e-06,0.0,0 STARLINK-4661,1 53732U 22107AJ  23025.83121621 -.00000102  00000-0  11697-4 0  9990,2 53732  53.2204 326.7197 0001488  72.7711 287.3444 15.08834244 22622,6917.898,95.438,540.7919999999999,538.734,0.0
53732.0,STARLINK-4661,PAYLOAD,2023-01-26 02:18:29,15.08838075,0.0001214,53.219,325.5301,75.8458,284.2669,5.2167e-05,5.42e-06,0.0,0 STARLINK-4661,1 53732U 22107AJ  23026.09617177  .00000542  00000-0  52167-4 0  9999,2 53732  53.2190 325.5301 0001214  75.8458 284.2669 15.08838075 22664,6917.886,95.438,540.591,538.911,0.0
53732.0,STARLINK-4661,PAYLOAD,2023-01-26 22:58:29,15.08848243,0.0001305,53.2178,321.663,89.5815,270.5326,-6.019300000000001e-05,-1.246e-05,0.0,0 STARLINK-4661,1 53732U 22107AJ  23026.95728757 -.00001246  00000-0 -60193-4 0  9993,2 53732  53.2178 321.6630 0001305  89.5815 270.5326 15.08848243 22196,6917.855,95.437,540.623,538.817,0.0
53732.0,STARLINK-4661,PAYLOAD,2023-01-27 05:20:01,15.08857919,0.0001179,53.2192,320.4744,78.568,281.5445,1.8854e-05,1.2e-07,0.0,0 STARLINK-4661,1 53732U 22107AJ  23027.22223731  .00000012  00000-0  18854-4 0  9991,2 53732  53.2192 320.4744 0001179  78.5680 281.5445 15.08857919 22231,6917.826,95.436,540.506,538.875,0.0
53732.0,STARLINK-4661,PAYLOAD,2023-01-27 19:38:30,15.08834128,0.000157,53.2181,317.7972,90.5338,269.5834,-6.6202e-06,-3.93e-06,0.0,0 STARLINK-4661,1 53732U 22107AJ  23027.81841335 -.00000393  00000-0 -66202-5 0  9997,2 53732  53.2181 317.7972 0001570  90.5338 269.5834 15.08834128 22325,6917.898,95.438,540.849,538.677,0.0
53732.0,STARLINK-4661,PAYLOAD,2023-01-28 05:10:49,15.08844587,0.0001306,53.2193,316.0134,80.5833,279.5307,3.9882e-05,3.47e-06,0.0,0 STARLINK-4661,1 53732U 22107AJ  23028.21584542  .00000347  00000-0  39882-4 0  9996,2 53732  53.2193 316.0134 0001306  80.5833 279.5307 15.08844587 22388,6917.866,95.437,540.635,538.828,0.0
53732.0,STARLINK-4661,PAYLOAD,2023-01-28 19:29:17,15.08839536,0.0001163,53.2185,313.3369,77.8255,282.2867,-7.2867e-05,-1.447e-05,0.0,0 STARLINK-4661,1 53732U 22107AJ  23028.81201320 -.00001447  00000-0 -72867-4 0  9996,2 53732  53.2185 313.3369 0001163  77.8255 282.2867 15.08839536 22477,6917.882,95.438,540.551,538.942,0.0
53732.0,STARLINK-4661,PAYLOAD,2023-01-29 05:01:35,15.08850466,0.0001121,53.2187,311.5544,82.4593,277.6527,7.0289e-06,-1.76e-06,0.0,0 STARLINK-4661,1 53732U 22107AJ  23029.20944218 -.00000176  00000-0  70289-5 0  9994,2 53732  53.2187 311.5544 0001121  82.4593 277.6527 15.08850466 22538,6917.848,95.437,540.489,538.938,0.0
53732.0,STARLINK-4661,PAYLOAD,2023-01-29 19:20:05,15.08833261,0.0001093,53.2194,308.8797,96.196,263.9157,-1.8219e-05,-5.78e-06,0.0,0 STARLINK-4661,1 53732U 22107AJ  23029.80561576 -.00000578  00000-0 -18219-4 0  9993,2 53732  53.2194 308.8797 0001093  96.1960 263.9157 15.08833261 22624,6917.901,95.438,540.522,539.01,0.0
53732.0,STARLINK-4661,PAYLOAD,2023-01-30 03:17:00,15.08838297,0.0001051,53.219,307.3909,81.1282,278.9829,3.3587e-06,-2.34e-06,0.0,0 STARLINK-4661,1 53732U 22107AJ  23030.13681274 -.00000234  00000-0  33587-5 0  9993,2 53732  53.2190 307.3909 0001051  81.1282 278.9829 15.08838297 23272,6917.886,95.438,540.478,539.024,0.0
53732.0,STARLINK-4661,PAYLOAD,2023-01-30 22:21:38,15.08838157,9.86e-05,53.2185,303.8239,89.8628,270.2478,-2.5281e-05,-6.9e-06,0.0,0 STARLINK-4661,1 53732U 22107AJ  23030.93169725 -.00000690  00000-0 -25281-4 0  9991,2 53732  53.2185 303.8239 0000986  89.8628 270.2478 15.08838157 22794,6917.886,95.438,540.433,539.069,0.0
53732.0,STARLINK-4661,PAYLOAD,2023-01-31 04:43:10,15.08843476,0.0001044,53.2182,302.6342,90.781,269.3302,3.3956e-05,2.53e-06,0.0,0 STARLINK-4661,1 53732U 22107AJ  23031.19665178  .00000253  00000-0  33956-4 0  9994,2 53732  53.2182 302.6342 0001044  90.7810 269.3302 15.08843476 22833,6917.87,95.437,540.457,539.013,0.0
53732.0,STARLINK-4661,PAYLOAD,2023-02-01 02:58:33,15.08848775,0.0001276,53.219,298.4709,84.0012,276.1126,0.00015039,2.107e-05,0.0,0 STARLINK-4661,1 53732U 22107AJ  23032.12400298  .00002107  00000-0  15039-3 0  9999,2 53732  53.2190 298.4709 0001276  84.0012 276.1126 15.08848775 22970,6917.854,95.437,540.601,538.836,0.0
53732.0,STARLINK-4661,PAYLOAD,2023-02-02 02:49:22,15.08838597,0.0001554,53.2184,294.011,79.8058,280.3109,-1.3799e-05,-5.08e-06,0.0,0 STARLINK-4661,1 53732U 22107AJ  23033.11761609 -.00000508  00000-0 -13799-4 0  9992,2 53732  53.2184 294.0110 0001554  79.8058 280.3109 15.08838597 23129,6917.885,95.438,540.825,538.675,0.0
53732.0,STARLINK-4661,PAYLOAD,2023-02-02 23:29:21,15.08857455,8.78e-05,53.2187,290.144,75.9207,284.1883,-2.0396e-05,-6.12e-06,0.0,0 STARLINK-4661,1 53732U 22107AJ  23033.97871947 -.00000612  00000-0 -20396-4 0  9990,2 53732  53.2187 290.1440 0000878  75.9207 284.1883 15.08857455 23255,6917.827,95.436,540.299,539.085,0.0
53732.0,STARLINK-4661,PAYLOAD,2023-02-03 02:40:07,15.08859247,0.0001258,53.218,289.5499,82.0502,278.0633,-4.9617e-06,-3.67e-06,0.0,0 STARLINK-4661,1 53732U 22107AJ  23034.11119672 -.00000367  00000-0 -49617-5 0  9992,2 53732  53.2180 289.5499 0001258  82.0502 278.0633 15.08859247 23878,6917.822,95.436,540.557,538.816,0.0
53732.0,STARLINK-4661,PAYLOAD,2023-02-04 21:35:33,15.08842768,0.0001126,53.2178,281.5208,83.8131,276.2989,-3.9977e-05,-9.24e-06,0.0,0 STARLINK-4661,1 53732U 22107AJ  23035.89969221 -.00000924  00000-0 -39977-4 0  9997,2 53732  53.2178 281.5208 0001126  83.8131 276.2989 15.08842768 23544,6917.872,95.437,540.516,538.958,0.0
53732.0,STARLINK-4661,PAYLOAD,2023-02-05 02:21:42,15.08846484,0.0001361,53.2171,280.6295,88.0668,272.048,4.0219e-06,-2.24e-06,0.0,0 STARLINK-4661,1 53732U 22107AJ  23036.09840817 -.00000224  00000-0  40219-5 0  9993,2 53732  53.2171 280.6295 0001361  88.0668 272.0480 15.08846484 24175,6917.861,95.437,540.667,538.784,0.0
53732.0,STARLINK-4661,PAYLOAD,2023-02-05 19:50:58,15.08829758,0.0001292,53.2175,277.3571,98.7746,261.3393,1.0793e-05,-1.16e-06,0.0,0 STARLINK-4661,1 53732U 22107AJ  23036.82706192 -.00000116  00000-0  10793-4 0  9994,2 53732  53.2175 277.3571 0001292  98.7746 261.3393 15.08829758 23681,6917.912,95.438,540.67,538.883,0.0
53732.0,STARLINK-4661,PAYLOAD,2023-02-05 23:01:44,15.08833444,0.0001124,53.2163,276.7629,92.0466,268.0655,5.0422e-05,5.15e-06,0.0,0 STARLINK-4661,1 53732U 22107AJ  23036.95953905  .00000515  00000-0  50422-4 0  9999,2 53732  53.2163 276.7629 0001124  92.0466 268.0655 15.08833444 24307,6917.9,95.438,540.543,538.988,0.0
